[{"OBJECT_NAME":"QIANFAN-19","OBJECT_ID":"2024-185A","EPOCH":"2026-03-09T23:01:49.129824","MEAN_MOTION":14.14392209,"ECCENTRICITY":0.00082129,"INCLINATION":88.9763,"RA_OF_ASC_NODE":67.9253,"ARG_OF_PERICENTER":39.7684,"MEAN_ANOMALY":320.4104,"EPHEMERIS_TYPE":0,"CLASSIFICATION_TYPE":"U","NORAD_CAT_ID":61552,"ELEMENT_SET_NO":999,"REV_AT_EPOCH":8199,"BSTAR":0.00030187594,"MEAN_MOTION_DOT":5.92e-6,"MEAN_MOTION_DDOT":0},{"OBJECT_NAME":"FENGYUN 1C DEB","OBJECT_ID":"1999-025VW","EPOCH":"2026-03-09T11:05:20.566176","MEAN_MOTION":14.12129962,"ECCENTRICITY":0.00678096,"INCLINATION":99.1129,"RA_OF_ASC_NODE":151.3401,"ARG_OF_PERICENTER":2.6049,"MEAN_ANOMALY":11.9205,"EPHEMERIS_TYPE":0,"CLASSIFICATION_TYPE":"U","NORAD_CAT_ID":30213,"ELEMENT_SET_NO":999,"REV_AT_EPOCH":97739,"BSTAR":0.0014421258,"MEAN_MOTION_DOT":2.659e-5,"MEAN_MOTION_DDOT":0}]
